# From NK 1615
P/1996 R2 (Lagerkvist),e,2.5991,40.0466,333.4827,3.772782,0.1344966,0.31429047,304.0965,04/26.0/2025,2000,g 11.5,4.0
# From MPC 75703
P/1998 VS24 (LINEAR),e,5.0291,159.0415,244.8739,4.520824,0.1025363,0.24359872,271.3301,04/26.0/2025,2000,g 13.0,2.0
# From NK 731
P/1999 RO28 (LONEOS),e,7.5670,137.8422,231.3519,3.425295,0.1554738,0.67219254,330.8798,04/26.0/2025,2000,g 20.0,2.0
# From MPC 75704
P/1999 XN120 (Catalina),e,5.0297,285.2426,161.6201,4.182247,0.1152364,0.21147208,332.3690,04/26.0/2025,2000,g 13.5,2.0
# From NK 744
P/2000 R2 (LINEAR),e,11.6788,160.2723,176.5819,3.468952,0.1525481,0.53064558,326.3940,04/26.0/2025,2000,g 18.0,4.0
# From MPC 43019
P/2001 H5 (NEAT),e,8.3718,328.6719,224.5887,6.094559,0.0655074,0.59910933,228.6023,04/26.0/2025,2000,g 12.0,4.0
# From MPEC 2023-UR6
P/2002 EJ57 (LINEAR),e,4.9885,330.2303,167.2755,6.455470,0.0600914,0.59385863,150.3449,04/26.0/2025,2000,g 12.5,4.0
# From MPC 75007
C/2002 VQ94 (LINEAR),e,70.6631,35.1057,99.8067,186.5915,0.0003867,0.96379205,2.7124,04/26.0/2025,2000,g  9.5,2.0
# From MPEC 2025-H10
C/2003 A2 (Gleason),e,8.0701,154.5143,346.4451,5210,0.0000026,0.99781987,0.0000,11/04.3825/2003,2000,g  3.5,4.0
# From MPC 50354
P/2003 F2 (NEAT),e,11.6603,358.9095,192.8622,6.532943,0.0590256,0.53975367,117.4003,04/26.0/2025,2000,g 16.5,2.0
# From MPC182878
P/2003 QX29 (NEAT),e,11.3997,264.4844,37.7482,7.999222,0.0435645,0.47125896,355.5596,04/26.0/2025,2000,g  8.5,4.0
# From MPC105235
P/2003 T12 (SOHO),e,11.0237,174.5768,219.7914,2.584070,0.2372727,0.77019015,70.2951,04/26.0/2025,2000,g 17.0,4.0
# From MPEC 2022-YN2
P/2004 FY140 (LINEAR),e,2.1627,327.2621,254.2166,4.969291,0.0889738,0.19271098,300.6621,04/26.0/2025,2000,g 12.5,2.0
# From MPC 53304
P/2004 R3 (LINEAR-NEAT),e,12.8004,305.1199,37.2611,4.748417,0.0952535,0.25441384,125.5540,04/26.0/2025,2000,g 14.5,4.0
# From MPC 75705
P/2004 V5 (LINEAR-Hill),e,19.3393,47.7419,87.2153,8.039029,0.0432413,0.44849876,324.0029,04/26.0/2025,2000,g  8.0,4.0
# From MPC 75705
P/2004 V5-B (LINEAR-Hill),e,19.3395,47.7423,87.2194,8.039312,0.0432390,0.44851728,323.9628,04/26.0/2025,2000,g  8.0,4.0
# From MPC 54164
P/2005 E1 (Tubbiolo),e,4.2607,335.5005,193.9154,7.069403,0.0524360,0.37723018,30.1997,04/26.0/2025,2000,g 10.0,4.0
# From MPC 79019
P/2005 J1 (McNaught),e,31.7405,268.7999,338.9137,3.574841,0.1458206,0.56933698,348.8151,04/26.0/2025,2000,g 16.5,4.0
# From MPC 74246
P/2005 L1 (McNaught),e,8.3942,128.5312,159.0824,3.939624,0.1260439,0.24848757,154.5930,04/26.0/2025,2000,g  9.5,4.0
# From MPC 75706
P/2005 S2 (Skiff),e,3.1384,161.3352,229.9830,7.985155,0.0436796,0.19853861,300.1292,04/26.0/2025,2000,g  7.5,4.0
# From MPC 73461
P/2005 T3 (Read),e,6.2316,27.6242,7.0629,7.575589,0.0472693,0.17448627,337.2918,04/26.0/2025,2000,g  9.0,4.0
# From MPC 73461
P/2005 T4 (SWAN),e,160.2547,25.8410,41.8072,9.352044,0.0344623,0.93064906,245.6165,04/26.0/2025,2000,g 15.0,4.0
# From MPC 75706
P/2005 T5 (Broughton),e,21.3835,57.0626,304.7777,7.259061,0.0503945,0.55179605,357.4836,04/26.0/2025,2000,g 11.0,4.0
# From MPC 75707
P/2006 HR30 (Siding Spring),e,31.9537,309.7619,117.5068,7.797310,0.0452675,0.84362576,302.8625,04/26.0/2025,2000,g 11.0,4.0
# From MPC 75707
P/2007 C2 (Catalina),e,8.6129,275.2348,180.1306,7.021872,0.0529694,0.47414367,342.5572,04/26.0/2025,2000,g 10.0,4.0
# From MPC 84315
C/2007 D1 (LINEAR),e,41.5126,171.0512,339.7424,1223,0.0000230,0.99285538,0.0000,06/13.6986/2007,2000,g  3.5,4.0
# From MPEC 2024-GJ3
P/2007 K2 (Gibbs),e,7.5971,188.4479,347.1033,7.368896,0.0492720,0.68632169,328.4379,04/26.0/2025,2000,g 14.0,4.0
# From MPC 60925
P/2007 Q2 (Gilmore),e,10.1939,172.2248,162.8531,5.661133,0.0731727,0.66882342,118.0146,04/26.0/2025,2000,g 16.0,4.0
# From MPC 73462
P/2007 S1 (Zhao),e,5.9632,141.3277,245.2720,3.818420,0.1320926,0.33798632,123.1785,04/26.0/2025,2000,g 13.0,4.0
# From MPEC 2024-GJ3
C/2007 S2 (Lemmon),e,16.9149,296.1290,210.1462,12.49500,0.0223151,0.55686664,135.6477,04/26.0/2025,2000,g  6.5,4.0
# From MPEC 2025-HA3
P/2007 SA24 (Lemmon),e,17.1171,233.2683,107.8336,6.229562,0.0633896,0.56903268,55.5287,04/26.0/2025,2000,g 12.6,4.0
# From MPC 61994
P/2007 T2 (Kowalski),e,9.7484,3.3924,359.6687,3.043567,0.1856222,0.78547399,97.5409,04/26.0/2025,2000,g 18.5,4.0
# From MPEC 2024-GJ3
C/2008 E1 (Catalina),e,34.8646,188.9305,270.3490,10.76387,0.0279095,0.55286385,170.0014,04/26.0/2025,2000,g  7.0,4.0
# From MPC 64114
P/2008 O3 (Boattini),e,32.3130,47.6077,341.2019,8.208735,0.0419073,0.69621123,258.0631,04/26.0/2025,2000,g 13.0,4.0
# From MPC 75710
P/2008 Y3 (McNaught),e,38.7790,262.8408,238.1191,8.037870,0.0432506,0.44811970,258.1741,04/26.0/2025,2000,g  8.5,4.0
# From MPC 75710
P/2009 B1 (Boattini),e,22.2595,297.1086,128.9987,6.725987,0.0565028,0.63596341,335.6802,04/26.0/2025,2000,g 13.0,4.0
# From MPC 66466
C/2009 G1 (STEREO),e,108.0499,120.8660,175.5120,454.6284,0.0001017,0.99750052,0.0000,04/17.4608/2009,2000,g  9.0,4.0
# From MPEC 2025-HB5
P/2009 KF37,e,11.3881,111.9442,143.9765,4.111863,0.1182078,0.31053710,328.4652,04/26.0/2025,2000,g 14.9,4.0
# From MPC 75710
P/2009 O3 (Hill),e,16.2540,183.7169,154.4280,7.771858,0.0454901,0.68621502,264.4344,04/26.0/2025,2000,g 12.5,4.0
# From MPC 68902
P/2009 Q5 (McNaught),e,40.9555,160.2112,209.2040,7.425818,0.0487066,0.60936755,277.3382,04/26.0/2025,2000,g 10.0,4.0
# From MPC112389
P/2009 T2 (La Sagra),e,27.6009,216.3184,215.9967,7.708454,0.0460525,0.76748050,256.9721,04/26.0/2025,2000,g 14.0,4.0
# From MPC105235
P/2009 WX51 (Catalina),e,9.5977,31.5230,118.2931,3.082359,0.1821291,0.73966448,295.5119,04/26.0/2025,2000,g 19.0,2.0
# From MPC 74247
P/2009 Y2 (Kowalski),e,29.9733,262.0842,172.2360,6.538654,0.0589483,0.63740906,325.5314,04/26.0/2025,2000,g 13.0,4.0
# From MPC 75008
P/2010 C1 (Scotti),e,9.1157,141.5932,2.9299,7.128244,0.0517881,0.26374365,295.5167,04/26.0/2025,2000,g  9.5,4.0
# From MPC 75008
P/2010 D2 (WISE),e,57.1345,319.8759,120.0068,6.717308,0.0566123,0.45171576,314.4594,04/26.0/2025,2000,g 16.0,4.0
# From MPC 75009
P/2010 E2 (Jarnac),e,15.4236,177.8238,8.2147,8.635564,0.0388390,0.72079261,214.3538,04/26.0/2025,2000,g 14.0,4.0
# From MPC 72851
P/2010 H2 (Vales),e,14.2793,64.1884,128.0484,3.833969,0.1312899,0.19770805,6.2173,04/26.0/2025,2000,g  6.0,4.0
# From MPC 70361
P/2010 H3 (SOHO),e,23.1499,77.1848,26.0686,3.035343,0.1863771,0.98557284,0.0000,05/25.2279/2026,2000,g 20.0,2.0
# From MPEC 2024-GJ3
P/2010 H4 (Scotti),e,2.3178,44.7456,179.0804,6.617572,0.0578970,0.26703665,316.2502,04/26.0/2025,2000,g 10.5,4.0
# From MPC 74637
P/2010 H5 (Scotti),e,14.0533,24.5327,174.8247,7.172721,0.0513072,0.15502365,283.7353,04/26.0/2025,2000,g 13.0,2.0
# From MPC 98558
P/2010 J3 (McMillan),e,13.2270,106.5388,157.4246,8.987873,0.0365779,0.72418169,196.5828,04/26.0/2025,2000,g 11.0,4.0
# From MPC 84315
P/2010 JC81 (WISE),e,38.7735,30.8543,12.5025,8.102749,0.0427322,0.77811487,218.1307,04/26.0/2025,2000,g  9.0,4.0
# From MPEC 2025-H90
P/2010 KG43,e,13.6495,325.7112,354.3213,5.578495,0.0748046,0.48297639,45.5143,04/26.0/2025,2000,g 12.7,4.0
# From MPEC 2024-H77
A/2010 LN135,e,64.4761,184.8429,181.5716,38265,0.0000001,0.99995436,0.0000,05/25.2631/2011,2000,g 14.0,2.0
# From MPEC 2025-HB5
P/2010 LH155,e,8.8068,221.1192,308.5209,3.744042,0.1360482,0.40597830,2.3107,04/26.0/2025,2000,g 14.3,4.0
# From MPC 74248
P/2010 T2 (PANSTARRS),e,7.8621,57.8412,350.3002,5.594477,0.0744843,0.32615966,31.7681,04/26.0/2025,2000,g 11.5,4.0
# From MPC 82316
P/2010 U1 (Boattini),e,8.2274,280.8072,86.5329,6.486708,0.0596578,0.24842967,330.0614,04/26.0/2025,2000,g  9.5,4.0
# From MPEC 2023-J95
C/2010 U3 (Boattini),e,55.5492,42.9918,88.0797,19185,0.0000004,0.99956014,0.0000,02/27.8980/2019,2000,g  1.0,4.0
# From MPC 79021
P/2010 UH55 (Spacewatch),e,8.0368,232.8333,225.3011,6.648465,0.0574939,0.56469632,294.8434,04/26.0/2025,2000,g 11.0,4.0
# From MPC 84021
P/2011 C2 (Gibbs),e,10.8946,11.9596,160.2787,7.409314,0.0488694,0.27102078,239.0245,04/26.0/2025,2000,g  9.0,4.0
# From MPC 79866
P/2011 FR143 (Lemmon),e,15.9629,190.8499,349.6591,6.881271,0.0546011,0.45248600,284.7875,04/26.0/2025,2000,g 14.0,2.0
# From MPC 82317
P/2011 JB15 (Spacewatch-Boattini),e,19.1255,153.5862,110.7141,7.380004,0.0491608,0.31471306,239.4605,04/26.0/2025,2000,g  9.0,4.0
# From MPC 87913
P/2011 N1 (ASH),e,35.7864,77.6289,330.4896,6.234221,0.0633185,0.54547819,298.0174,04/26.0/2025,2000,g 11.5,4.0
# From MPEC 2022-ED3
P/2011 P1 (McNaught),e,5.6522,4.2613,349.1806,7.461212,0.0483604,0.32642940,260.1090,04/26.0/2025,2000,g  9.0,4.0
# From MPEC 2022-HC2
P/2011 S1 (Gibbs),e,2.6885,218.8971,192.9313,8.595510,0.0391108,0.20107472,152.4358,04/26.0/2025,2000,g  8.0,4.0
# From MPEC 2023-UR6
P/2011 V1 (Boattini),e,7.3830,46.4910,269.6129,3.857319,0.1300995,0.54836923,312.8323,04/26.0/2025,2000,g 15.5,4.0
# From MPC 82718
P/2011 W1 (PANSTARRS),e,3.7161,161.8093,283.0204,4.674110,0.0975339,0.28849696,114.2704,04/26.0/2025,2000,g 11.5,4.0
# From MPC 79342
P/2011 Y2 (Boattini),e,6.3916,309.3204,132.0672,6.229006,0.0633981,0.71120303,303.6275,04/26.0/2025,2000,g 15.0,4.0
# From MPEC 2022-K19
P/2012 B1 (PANSTARRS),e,7.6057,36.2104,161.9341,6.541421,0.0589109,0.41007696,255.2627,04/26.0/2025,2000,g  9.0,4.0
# From MPC 78590
P/2012 C3 (PANSTARRS),e,9.0920,135.3677,344.9542,9.748681,0.0323806,0.63011148,359.9758,10/06.0/2011,2000,g 13.0,4.0
# From MPC 84931
P/2012 F2 (PANSTARRS),e,14.6984,226.9570,33.1607,6.347193,0.0616356,0.54045298,272.2635,04/26.0/2025,2000,g 12.0,4.0
# From MPEC 2022-ED3
P/2012 G1 (PANSTARRS),e,12.1680,283.2389,266.0193,4.162628,0.1160520,0.32949147,193.7995,04/26.0/2025,2000,g 15.0,4.0
# From MPC 80898
P/2012 K3 (Gibbs),e,13.1816,125.8062,172.1438,3.632463,0.1423647,0.42167918,296.5158,04/26.0/2025,2000,g 15.0,4.0
# From MPEC 2025-H88
C/2012 KA51,e,70.7381,344.8465,93.9844,532.1926,0.0000803,0.99085667,0.0000,11/06.2848/2011,2000,g  8.7,4.0
# From MPC 88326
P/2012 NJ (La Sagra),e,84.3304,315.6914,338.3888,8.467572,0.0400005,0.84648099,188.0079,04/26.0/2025,2000,g 14.5,4.0
# From MPC 81470
